"{\n    \"CCSDS_OMM_VERS\": \"2.0\",\n    \"COMMENT\": \"GENERATED VIA SPACE-TRACK.ORG API\",\n    \"CREATION_DATE\": \"2025-08-28T23:13:47\",\n    \"ORIGINATOR\": \"18 SPCS\",\n    \"OBJECT_NAME\": \"GALILEO 24 (2C0)\",\n    \"OBJECT_ID\": \"2018-060D\",\n    \"CENTER_NAME\": \"EARTH\",\n    \"REF_FRAME\": \"TEME\",\n    \"TIME_SYSTEM\": \"UTC\",\n    \"MEAN_ELEMENT_THEORY\": \"SGP4\",\n    \"EPOCH\": \"2025-08-27T20:20:01.739040\",\n    \"MEAN_MOTION\": \"1.7047637712\",\n    \"ECCENTRICITY\": \"0.00033671143\",\n    \"INCLINATION\": \"57.257041\",\n    \"RA_OF_ASC_NODE\": \"349.71001\",\n    \"ARG_OF_PERICENTER\": \"265.37927\",\n    \"MEAN_ANOMALY\": \"94.602041\",\n    \"EPHEMERIS_TYPE\": \"0\",\n    \"CLASSIFICATION_TYPE\": \"U\",\n    \"NORAD_CAT_ID\": \"43567\",\n    \"ELEMENT_SET_NO\": \"999\",\n    \"REV_AT_EPOCH\": \"4417\",\n    \"BSTAR\": \"0\",\n    \"MEAN_MOTION_DOT\": \"-0.000001043806\",\n    \"MEAN_MOTION_DDOT\": \"0\",\n    \"TLE_LINE0\": \"0 GALILEO 24 (2C0)\",\n    \"TLE_LINE1\": \"1 43567U 18060D   25239.84724235 -.00000104  00000-0  00000-0 0  9992\",\n    \"TLE_LINE2\": \"2 43567  57.2570 349.7100 0003367 265.3793  94.6020  1.70476377 44170\",\n    \"SEMIMAJOR_AXIS\": \"29600.045\",\n    \"PERIOD\": \"844.692\",\n    \"APOAPSIS\": \"23231.877\",\n    \"PERIAPSIS\": \"23211.943\",\n    \"OBJECT_TYPE\": \"PAYLOAD\",\n    \"DECAYED\": \"0\"\n}"